[{"OBJECT_NAME":"STARLINK-36038","OBJECT_ID":"2025-278P","EPOCH":"2026-03-20T15:00:09.311328","MEAN_MOTION":15.27588813,"ECCENTRICITY":5.98e-5,"INCLINATION":43.0038,"RA_OF_ASC_NODE":52.4264,"ARG_OF_PERICENTER":270.4529,"MEAN_ANOMALY":89.6254,"EPHEMERIS_TYPE":0,"CLASSIFICATION_TYPE":"U","NORAD_CAT_ID":66804,"ELEMENT_SET_NO":999,"REV_AT_EPOCH":1688,"BSTAR":0.0012227,"MEAN_MOTION_DOT":0.00033547,"MEAN_MOTION_DDOT":0},{"OBJECT_NAME":"STARLINK-36049","OBJECT_ID":"2025-278Q","EPOCH":"2026-03-20T04:52:52.161600","MEAN_MOTION":15.27582563,"ECCENTRICITY":0.00010951,"INCLINATION":42.9998,"RA_OF_ASC_NODE":55.282,"ARG_OF_PERICENTER":251.4745,"MEAN_ANOMALY":108.5988,"EPHEMERIS_TYPE":0,"CLASSIFICATION_TYPE":"U","NORAD_CAT_ID":66805,"ELEMENT_SET_NO":999,"REV_AT_EPOCH":1681,"BSTAR":0.00085464256,"MEAN_MOTION_DOT":0.00023332,"MEAN_MOTION_DDOT":0},{"OBJECT_NAME":"STARLINK-36069","OBJECT_ID":"2025-278R","EPOCH":"2026-03-20T04:58:24.945024","MEAN_MOTION":15.27589394,"ECCENTRICITY":0.00013871,"INCLINATION":43.0017,"RA_OF_ASC_NODE":55.3119,"ARG_OF_PERICENTER":259.7419,"MEAN_ANOMALY":100.3276,"EPHEMERIS_TYPE":0,"CLASSIFICATION_TYPE":"U","NORAD_CAT_ID":66806,"ELEMENT_SET_NO":999,"REV_AT_EPOCH":1681,"BSTAR":0.00041783349,"MEAN_MOTION_DOT":0.00011257,"MEAN_MOTION_DDOT":0},{"OBJECT_NAME":"STARLINK-36000","OBJECT_ID":"2025-278S","EPOCH":"2026-03-20T15:05:41.976384","MEAN_MOTION":15.27608132,"ECCENTRICITY":8.6e-5,"INCLINATION":43.0042,"RA_OF_ASC_NODE":52.4531,"ARG_OF_PERICENTER":271.3984,"MEAN_ANOMALY":88.6769,"EPHEMERIS_TYPE":0,"CLASSIFICATION_TYPE":"U","NORAD_CAT_ID":66807,"ELEMENT_SET_NO":999,"REV_AT_EPOCH":1688,"BSTAR":0.0007242,"MEAN_MOTION_DOT":0.00019737,"MEAN_MOTION_DDOT":0},{"OBJECT_NAME":"STARLINK-36071","OBJECT_ID":"2025-278T","EPOCH":"2026-03-20T14:34:15.029760","MEAN_MOTION":15.27589518,"ECCENTRICITY":9.22e-5,"INCLINATION":43.003,"RA_OF_ASC_NODE":52.2866,"ARG_OF_PERICENTER":282.932,"MEAN_ANOMALY":77.1429,"EPHEMERIS_TYPE":0,"CLASSIFICATION_TYPE":"U","NORAD_CAT_ID":66808,"ELEMENT_SET_NO":999,"REV_AT_EPOCH":1688,"BSTAR":0.00057675,"MEAN_MOTION_DOT":0.00015647,"MEAN_MOTION_DDOT":0},{"OBJECT_NAME":"STARLINK-35979","OBJECT_ID":"2025-278U","EPOCH":"2026-03-20T08:08:34.854720","MEAN_MOTION":15.27589517,"ECCENTRICITY":0.00015525,"INCLINATION":43.0014,"RA_OF_ASC_NODE":54.581,"ARG_OF_PERICENTER":280.657,"MEAN_ANOMALY":79.4106,"EPHEMERIS_TYPE":0,"CLASSIFICATION_TYPE":"U","NORAD_CAT_ID":66809,"ELEMENT_SET_NO":999,"REV_AT_EPOCH":1683,"BSTAR":0.00063788859,"MEAN_MOTION_DOT":0.00017338,"MEAN_MOTION_DDOT":0},{"OBJECT_NAME":"STARLINK-36046","OBJECT_ID":"2025-278V","EPOCH":"2026-03-20T15:37:11.494272","MEAN_MOTION":15.27584616,"ECCENTRICITY":0.0001225,"INCLINATION":43.0024,"RA_OF_ASC_NODE":52.614,"ARG_OF_PERICENTER":203.4906,"MEAN_ANOMALY":156.589,"EPHEMERIS_TYPE":0,"CLASSIFICATION_TYPE":"U","NORAD_CAT_ID":66810,"ELEMENT_SET_NO":999,"REV_AT_EPOCH":1688,"BSTAR":0.0017727,"MEAN_MOTION_DOT":0.00048848,"MEAN_MOTION_DDOT":0},{"OBJECT_NAME":"STARLINK-36045","OBJECT_ID":"2025-278W","EPOCH":"2026-03-20T15:26:03.043392","MEAN_MOTION":15.276076,"ECCENTRICITY":0.0001583,"INCLINATION":43.0059,"RA_OF_ASC_NODE":52.5582,"ARG_OF_PERICENTER":261.5401,"MEAN_ANOMALY":98.5271,"EPHEMERIS_TYPE":0,"CLASSIFICATION_TYPE":"U","NORAD_CAT_ID":66811,"ELEMENT_SET_NO":999,"REV_AT_EPOCH":1688,"BSTAR":0.00074516,"MEAN_MOTION_DOT":0.00020317,"MEAN_MOTION_DDOT":0},{"OBJECT_NAME":"STARLINK-36054","OBJECT_ID":"2025-278X","EPOCH":"2026-03-20T15:22:21.220032","MEAN_MOTION":15.27599754,"ECCENTRICITY":0.0001233,"INCLINATION":43.0065,"RA_OF_ASC_NODE":52.5358,"ARG_OF_PERICENTER":268.6929,"MEAN_ANOMALY":91.3781,"EPHEMERIS_TYPE":0,"CLASSIFICATION_TYPE":"U","NORAD_CAT_ID":66812,"ELEMENT_SET_NO":999,"REV_AT_EPOCH":1688,"BSTAR":0.00090311,"MEAN_MOTION_DOT":0.00024687,"MEAN_MOTION_DDOT":0},{"OBJECT_NAME":"STARLINK-36042","OBJECT_ID":"2025-278Y","EPOCH":"2026-03-20T14:45:20.833344","MEAN_MOTION":15.27595237,"ECCENTRICITY":8.39e-5,"INCLINATION":43.0012,"RA_OF_ASC_NODE":52.3357,"ARG_OF_PERICENTER":275.2053,"MEAN_ANOMALY":84.8703,"EPHEMERIS_TYPE":0,"CLASSIFICATION_TYPE":"U","NORAD_CAT_ID":66813,"ELEMENT_SET_NO":999,"REV_AT_EPOCH":1688,"BSTAR":0.00049961,"MEAN_MOTION_DOT":0.00013518,"MEAN_MOTION_DDOT":0},{"OBJECT_NAME":"STARLINK-35984","OBJECT_ID":"2025-278Z","EPOCH":"2026-03-20T14:49:03.072288","MEAN_MOTION":15.27587054,"ECCENTRICITY":9.45e-5,"INCLINATION":43.0018,"RA_OF_ASC_NODE":52.3584,"ARG_OF_PERICENTER":275.1521,"MEAN_ANOMALY":84.9223,"EPHEMERIS_TYPE":0,"CLASSIFICATION_TYPE":"U","NORAD_CAT_ID":66814,"ELEMENT_SET_NO":999,"REV_AT_EPOCH":1688,"BSTAR":0.0010772,"MEAN_MOTION_DOT":0.00029505,"MEAN_MOTION_DDOT":0},{"OBJECT_NAME":"STARLINK-35985","OBJECT_ID":"2025-278AA","EPOCH":"2026-03-20T15:16:48.194688","MEAN_MOTION":15.275842,"ECCENTRICITY":0.0001237,"INCLINATION":43.004,"RA_OF_ASC_NODE":52.5046,"ARG_OF_PERICENTER":275.3069,"MEAN_ANOMALY":84.7642,"EPHEMERIS_TYPE":0,"CLASSIFICATION_TYPE":"U","NORAD_CAT_ID":66815,"ELEMENT_SET_NO":999,"REV_AT_EPOCH":1809,"BSTAR":0.00081217,"MEAN_MOTION_DOT":0.00022157,"MEAN_MOTION_DDOT":0},{"OBJECT_NAME":"STARLINK-36098","OBJECT_ID":"2025-278AB","EPOCH":"2026-03-20T14:36:05.867136","MEAN_MOTION":15.27587297,"ECCENTRICITY":6.32e-5,"INCLINATION":42.9985,"RA_OF_ASC_NODE":52.2917,"ARG_OF_PERICENTER":312.049,"MEAN_ANOMALY":48.0308,"EPHEMERIS_TYPE":0,"CLASSIFICATION_TYPE":"U","NORAD_CAT_ID":66816,"ELEMENT_SET_NO":999,"REV_AT_EPOCH":1688,"BSTAR":0.0008588,"MEAN_MOTION_DOT":0.00023451,"MEAN_MOTION_DDOT":0},{"OBJECT_NAME":"STARLINK-35995","OBJECT_ID":"2025-278AC","EPOCH":"2026-03-20T21:27:54.336960","MEAN_MOTION":15.27611677,"ECCENTRICITY":0.0001037,"INCLINATION":43.0042,"RA_OF_ASC_NODE":51.003,"ARG_OF_PERICENTER":265.8629,"MEAN_ANOMALY":94.2105,"EPHEMERIS_TYPE":0,"CLASSIFICATION_TYPE":"U","NORAD_CAT_ID":66817,"ELEMENT_SET_NO":999,"REV_AT_EPOCH":1692,"BSTAR":0.0013898,"MEAN_MOTION_DOT":0.00038216,"MEAN_MOTION_DDOT":0},{"OBJECT_NAME":"STARLINK-35994","OBJECT_ID":"2025-278AD","EPOCH":"2026-03-20T15:14:57.532704","MEAN_MOTION":15.27592908,"ECCENTRICITY":1.15e-5,"INCLINATION":43.0015,"RA_OF_ASC_NODE":52.5035,"ARG_OF_PERICENTER":275.3865,"MEAN_ANOMALY":84.6973,"EPHEMERIS_TYPE":0,"CLASSIFICATION_TYPE":"U","NORAD_CAT_ID":66818,"ELEMENT_SET_NO":999,"REV_AT_EPOCH":1688,"BSTAR":0.0012324,"MEAN_MOTION_DOT":0.00033821,"MEAN_MOTION_DDOT":0},{"OBJECT_NAME":"STARLINK-35989","OBJECT_ID":"2025-278AE","EPOCH":"2026-03-20T15:27:54.374112","MEAN_MOTION":15.27592288,"ECCENTRICITY":0.0001015,"INCLINATION":43.0039,"RA_OF_ASC_NODE":52.5647,"ARG_OF_PERICENTER":282.9717,"MEAN_ANOMALY":77.1022,"EPHEMERIS_TYPE":0,"CLASSIFICATION_TYPE":"U","NORAD_CAT_ID":66819,"ELEMENT_SET_NO":999,"REV_AT_EPOCH":1688,"BSTAR":0.00060437,"MEAN_MOTION_DOT":0.00016412,"MEAN_MOTION_DDOT":0},{"OBJECT_NAME":"STARLINK-35966","OBJECT_ID":"2025-280A","EPOCH":"2026-03-20T01:17:35.265696","MEAN_MOTION":14.98336071,"ECCENTRICITY":0.00028173,"INCLINATION":70.0004,"RA_OF_ASC_NODE":308.5119,"ARG_OF_PERICENTER":271.4866,"MEAN_ANOMALY":88.597,"EPHEMERIS_TYPE":0,"CLASSIFICATION_TYPE":"U","NORAD_CAT_ID":66821,"ELEMENT_SET_NO":999,"REV_AT_EPOCH":1762,"BSTAR":8.410576e-6,"MEAN_MOTION_DOT":7.0e-8,"MEAN_MOTION_DDOT":0}]
