STARLINK-36038          
1 66804U 25278P   26079.62510777  .00033547  00000+0  12227-2 0  9994
2 66804  43.0038  52.4264 0000598 270.4529  89.6254 15.27588813 16883
STARLINK-36049          
1 66805U 25278Q   26079.20338150  .00023332  00000+0  85464-3 0  9997
2 66805  42.9998  55.2820 0001095 251.4745 108.5988 15.27582563 16812
STARLINK-36069          
1 66806U 25278R   26079.20723316  .00011257  00000+0  41783-3 0  9999
2 66806  43.0017  55.3119 0001387 259.7419 100.3276 15.27589394 16811
STARLINK-36000          
1 66807U 25278S   26079.62895806  .00019737  00000+0  72420-3 0  9993
2 66807  43.0042  52.4531 0000860 271.3984  88.6769 15.27608132 16882
STARLINK-36071          
1 66808U 25278T   26079.60711840  .00015647  00000+0  57675-3 0  9998
2 66808  43.0030  52.2866 0000922 282.9320  77.1429 15.27589518 16882
STARLINK-35979          
1 66809U 25278U   26079.33929230  .00017338  00000+0  63789-3 0  9995
2 66809  43.0014  54.5810 0001552 280.6570  79.4106 15.27589517 16832
STARLINK-36046          
1 66810U 25278V   26079.65082748  .00048848  00000+0  17727-2 0  9996
2 66810  43.0024  52.6140 0001225 203.4906 156.5890 15.27584616 16880
STARLINK-36045          
1 66811U 25278W   26079.64309078  .00020317  00000+0  74516-3 0  9995
2 66811  43.0059  52.5582 0001583 261.5401  98.5271 15.27607600 16887
STARLINK-36054          
1 66812U 25278X   26079.64052338  .00024687  00000+0  90311-3 0  9995
2 66812  43.0065  52.5358 0001233 268.6929  91.3781 15.27599754 16888
STARLINK-36042          
1 66813U 25278Y   26079.61482446  .00013518  00000+0  49961-3 0  9996
2 66813  43.0012  52.3357 0000839 275.2053  84.8703 15.27595237 16884
STARLINK-35984          
1 66814U 25278Z   26079.61739667  .00029505  00000+0  10772-2 0  9997
2 66814  43.0018  52.3584 0000945 275.1521  84.9223 15.27587054 16886
STARLINK-35985          
1 66815U 25278AA  26079.63666892  .00022157  00000+0  81217-3 0  9998
2 66815  43.0040  52.5046 0001237 275.3069  84.7642 15.27584200 18099
STARLINK-36098          
1 66816U 25278AB  26079.60840124  .00023451  00000+0  85880-3 0  9996
2 66816  42.9985  52.2917 0000632 312.0490  48.0308 15.27587297 16881
STARLINK-35995          
1 66817U 25278AC  26079.89437890  .00038216  00000+0  13898-2 0  9994
2 66817  43.0042  51.0030 0001037 265.8629  94.2105 15.27611677 16923
STARLINK-35994          
1 66818U 25278AD  26079.63538811  .00033821  00000+0  12324-2 0  9992
2 66818  43.0015  52.5035 0000115 275.3865  84.6973 15.27592908 16885
STARLINK-35989          
1 66819U 25278AE  26079.64437933  .00016412  00000+0  60437-3 0  9993
2 66819  43.0039  52.5647 0001015 282.9717  77.1022 15.27592288 16884
STARLINK-35966          
1 66821U 25280A   26079.05388039  .00000007  00000+0  84106-5 0  9990
2 66821  70.0004 308.5119 0002817 271.4866  88.5970 14.98336071 17620
